{
  "type": "FeatureCollection",
  "features": [
    {
      "type": "Feature",
      "properties": {
        "norad_id": 28051,
        "name": "IRS-P6 (RESOURCESAT-1)",
        "group": "resource",
        "lat": -13.295909021153372,
        "lon": -141.7874600472228,
        "alt_km": 748.0903638398395,
        "timestamp": "2025-12-26T09:30:53.284253+00:00",
        "meta_object_name": "IRS-P6 (RESOURCESAT-1)",
        "meta_object_id": "2003-046A",
        "meta_epoch": "2025-12-26T04:01:45.099840",
        "meta_mean_motion": 14.36080525,
        "meta_eccentricity": 0.0064959,
        "meta_inclination": 98.2158,
        "meta_ra_of_asc_node": 39.9512,
        "meta_arg_of_pericenter": 140.6147,
        "meta_mean_anomaly": 311.1271,
        "meta_ephemeris_type": 0,
        "meta_classification_type": "U",
        "meta_norad_cat_id": 28051,
        "meta_element_set_no": 999,
        "meta_rev_at_epoch": 15569,
        "meta_bstar": 6.4824e-05,
        "meta_mean_motion_dot": 1.53e-06,
        "meta_mean_motion_ddot": 0,
        "tle_line1": "1 28051U 03046A   25360.16788310  .00000153  00000+0  64824-4 0  9995",
        "tle_line2": "2 28051  98.2158  39.9512 0064959 140.6147 311.1271 14.36080525155692"
      },
      "geometry": {
        "type": "Point",
        "coordinates": [
          -141.7874600472228,
          -13.295909021153372
        ]
      }
    },
    {
      "type": "Feature",
      "properties": {
        "norad_id": 28220,
        "name": "SHIYAN-1 (SY-1)",
        "group": "resource",
        "lat": -80.9830693289976,
        "lon": 123.67730700416371,
        "alt_km": 484.15372149925133,
        "timestamp": "2025-12-26T09:30:53.284267+00:00",
        "meta_object_name": "SHIYAN-1 (SY-1)",
        "meta_object_id": "2004-012A",
        "meta_epoch": "2025-12-25T18:10:37.216416",
        "meta_mean_motion": 15.2847773,
        "meta_eccentricity": 0.00051453,
        "meta_inclination": 97.8913,
        "meta_ra_of_asc_node": 62.0651,
        "meta_arg_of_pericenter": 270.3506,
        "meta_mean_anomaly": 89.7142,
        "meta_ephemeris_type": 0,
        "meta_classification_type": "U",
        "meta_norad_cat_id": 28220,
        "meta_element_set_no": 999,
        "meta_rev_at_epoch": 18455,
        "meta_bstar": 0.00048278307,
        "meta_mean_motion_dot": 0.00013314,
        "meta_mean_motion_ddot": 0,
        "tle_line1": "1 28220U 04012A   25359.75737519  .00013314  00000+0  48278-3 0  9992",
        "tle_line2": "2 28220  97.8913  62.0651 0005145 270.3506  89.7142 15.28477730184559"
      },
      "geometry": {
        "type": "Point",
        "coordinates": [
          123.67730700416371,
          -80.9830693289976
        ]
      }
    },
    {
      "type": "Feature",
      "properties": {
        "norad_id": 28376,
        "name": "AURA",
        "group": "resource",
        "lat": -60.4175874447271,
        "lon": 115.74858061161287,
        "alt_km": 698.0601111616743,
        "timestamp": "2025-12-26T09:30:53.284278+00:00",
        "meta_object_name": "AURA",
        "meta_object_id": "2004-026A",
        "meta_epoch": "2025-12-26T03:28:54.881760",
        "meta_mean_motion": 14.6097635,
        "meta_eccentricity": 0.0001445,
        "meta_inclination": 98.3204,
        "meta_ra_of_asc_node": 310.4354,
        "meta_arg_of_pericenter": 90.5232,
        "meta_mean_anomaly": 269.6134,
        "meta_ephemeris_type": 0,
        "meta_classification_type": "U",
        "meta_norad_cat_id": 28376,
        "meta_element_set_no": 999,
        "meta_rev_at_epoch": 14094,
        "meta_bstar": 0.0002242,
        "meta_mean_motion_dot": 1.051e-05,
        "meta_mean_motion_ddot": 0,
        "tle_line1": "1 28376U 04026A   25360.14507965  .00001051  00000+0  22420-3 0  9990",
        "tle_line2": "2 28376  98.3204 310.4354 0001445  90.5232 269.6134 14.60976350140949"
      },
      "geometry": {
        "type": "Point",
        "coordinates": [
          115.74858061161287,
          -60.4175874447271
        ]
      }
    },
    {
      "type": "Feature",
      "properties": {
        "norad_id": 28649,
        "name": "IRS-P5 (CARTOSAT-1)",
        "group": "resource",
        "lat": 77.38103019211533,
        "lon": -117.47613617540445,
        "alt_km": 589.0019924820845,
        "timestamp": "2025-12-26T09:30:53.284290+00:00",
        "meta_object_name": "IRS-P5 (CARTOSAT-1)",
        "meta_object_id": "2005-017A",
        "meta_epoch": "2025-12-26T01:00:39.645792",
        "meta_mean_motion": 14.90447527,
        "meta_eccentricity": 4.71e-05,
        "meta_inclination": 97.5483,
        "meta_ra_of_asc_node": 25.865,
        "meta_arg_of_pericenter": 68.6931,
        "meta_mean_anomaly": 291.4338,
        "meta_ephemeris_type": 0,
        "meta_classification_type": "U",
        "meta_norad_cat_id": 28649,
        "meta_element_set_no": 999,
        "meta_rev_at_epoch": 11802,
        "meta_bstar": 0.00016417,
        "meta_mean_motion_dot": 1.548e-05,
        "meta_mean_motion_ddot": 0,
        "tle_line1": "1 28649U 05017A   25360.04212553  .00001548  00000+0  16417-3 0  9999",
        "tle_line2": "2 28649  97.5483  25.8650 0000471  68.6931 291.4338 14.90447527118023"
      },
      "geometry": {
        "type": "Point",
        "coordinates": [
          -117.47613617540445,
          77.38103019211533
        ]
      }
    },
    {
      "type": "Feature",
      "properties": {
        "norad_id": 28893,
        "name": "SINAH 1",
        "group": "resource",
        "lat": -54.725260302703475,
        "lon": -62.86133694108133,
        "alt_km": 695.6849518138742,
        "timestamp": "2025-12-26T09:30:53.284301+00:00",
        "meta_object_name": "SINAH 1",
        "meta_object_id": "2005-043D",
        "meta_epoch": "2025-12-25T22:36:05.479776",
        "meta_mean_motion": 14.63975984,
        "meta_eccentricity": 0.00157332,
        "meta_inclination": 98.261,
        "meta_ra_of_asc_node": 128.5349,
        "meta_arg_of_pericenter": 98.5336,
        "meta_mean_anomaly": 261.765,
        "meta_ephemeris_type": 0,
        "meta_classification_type": "U",
        "meta_norad_cat_id": 28893,
        "meta_element_set_no": 999,
        "meta_rev_at_epoch": 7517,
        "meta_bstar": 9.6905896e-05,
        "meta_mean_motion_dot": 4.59e-06,
        "meta_mean_motion_ddot": 0,
        "tle_line1": "1 28893U 05043D   25359.94173009  .00000459  00000+0  96906-4 0  9990",
        "tle_line2": "2 28893  98.2610 128.5349 0015733  98.5336 261.7650 14.63975984 75176"
      },
      "geometry": {
        "type": "Point",
        "coordinates": [
          -62.86133694108133,
          -54.725260302703475
        ]
      }
    },
    {
      "type": "Feature",
      "properties": {
        "norad_id": 29079,
        "name": "EROS B",
        "group": "resource",
        "lat": 69.38359877807311,
        "lon": 97.61072193507458,
        "alt_km": 345.5682079496173,
        "timestamp": "2025-12-26T09:30:53.284312+00:00",
        "meta_object_name": "EROS B",
        "meta_object_id": "2006-014A",
        "meta_epoch": "2025-12-26T04:38:04.460352",
        "meta_mean_motion": 15.72780029,
        "meta_eccentricity": 0.0004634,
        "meta_inclination": 97.3451,
        "meta_ra_of_asc_node": 117.4496,
        "meta_arg_of_pericenter": 312.044,
        "meta_mean_anomaly": 48.0429,
        "meta_ephemeris_type": 0,
        "meta_classification_type": "U",
        "meta_norad_cat_id": 29079,
        "meta_element_set_no": 999,
        "meta_rev_at_epoch": 9291,
        "meta_bstar": 0.0015606,
        "meta_mean_motion_dot": 0.00215341,
        "meta_mean_motion_ddot": 0,
        "tle_line1": "1 29079U 06014A   25360.19310718  .00215341  00000+0  15606-2 0  9999",
        "tle_line2": "2 29079  97.3451 117.4496 0004634 312.0440  48.0429 15.72780029 92910"
      },
      "geometry": {
        "type": "Point",
        "coordinates": [
          97.61072193507458,
          69.38359877807311
        ]
      }
    },
    {
      "type": "Feature",
      "properties": {
        "norad_id": 29228,
        "name": "RESURS-DK 1",
        "group": "resource",
        "lat": 29.327924396567127,
        "lon": 78.39482538114602,
        "alt_km": 531.3300037784857,
        "timestamp": "2025-12-26T09:30:53.284323+00:00",
        "meta_object_name": "RESURS-DK 1",
        "meta_object_id": "2006-021A",
        "meta_epoch": "2025-12-25T12:44:18.731040",
        "meta_mean_motion": 15.12230969,
        "meta_eccentricity": 0.0006922,
        "meta_inclination": 69.9336,
        "meta_ra_of_asc_node": 68.7803,
        "meta_arg_of_pericenter": 247.3291,
        "meta_mean_anomaly": 112.7143,
        "meta_ephemeris_type": 0,
        "meta_classification_type": "U",
        "meta_norad_cat_id": 29228,
        "meta_element_set_no": 999,
        "meta_rev_at_epoch": 7631,
        "meta_bstar": 0.00018237,
        "meta_mean_motion_dot": 3.053e-05,
        "meta_mean_motion_ddot": 0,
        "tle_line1": "1 29228U 06021A   25359.53077235  .00003053  00000+0  18237-3 0  9992",
        "tle_line2": "2 29228  69.9336  68.7803 0006922 247.3291 112.7143 15.12230969 76314"
      },
      "geometry": {
        "type": "Point",
        "coordinates": [
          78.39482538114602,
          29.327924396567127
        ]
      }
    }
  ]
}